#aV2023  1 25  0  0  0.00000000     288 DD+AD WGS84 FIT  NGA
## 2246 259200.00000000   300.00000000 59969 0.0000000000000
+   31     1  2  3  4  5  6  7  8  9 10 11 12 13 14 15 16 17
+         18 19 20 21 22 23 24 25 26 27 29 30 31 32  0  0  0
+          0  0  0  0  0  0  0  0  0  0  0  0  0  0  0  0  0
+          0  0  0  0  0  0  0  0  0  0  0  0  0  0  0  0  0
+          0  0  0  0  0  0  0  0  0  0  0  0  0  0  0  0  0
++         2  2  2  2  2  2  2  2  2  2  2  2  2  2  2  2  2
++         2  2  2  2  2  2  2  2  2  2  2  2  2  2  0  0  0
++         0  0  0  0  0  0  0  0  0  0  0  0  0  0  0  0  0
++         0  0  0  0  0  0  0  0  0  0  0  0  0  0  0  0  0
++         0  0  0  0  0  0  0  0  0  0  0  0  0  0  0  0  0
%c cc cc ccc ccc cccc cccc cccc cccc ccccc ccccc ccccc ccccc
%c cc cc ccc ccc cccc cccc cccc cccc ccccc ccccc ccccc ccccc
%f  0.0000000  0.000000000  0.00000000000  0.000000000000000
%f  0.0000000  0.000000000  0.00000000000  0.000000000000000
%i    0    0    0    0      0      0      0      0         0
%i    0    0    0    0      0      0      0      0         0
/*      NGA, ST. LOUIS,MO.                                  
/*   EPHEMERIS COMPUTED FROM 2 DAYS OF DATA                 
/*   EPOCHA v8 SMOOTHER                                     
/*   G2139 IERS2010 SATIGS SATAPC                           
*  2023  1 25 15  0  0.00000000
P  1 -22262.114290 -14722.332272  -2131.264438    220.109711                    
V  1   2780.199935   -216.932569 -31991.620905     -0.045771                    
P  2  23940.377356  11193.322319     75.044953   -625.136883                    
V  2   -595.512147   2847.209062  32045.173668      0.023576                    
P  3 -12371.631906 -14803.483580  18183.943365   -369.715037                    
V  3   1098.218879 -23261.931484 -17961.060082      0.030800                    
P  4 -18330.691291  -4833.689769  18653.904918    -41.471685                    
V  4  20120.723815 -12466.947430  16437.697729      0.078440                    
P  5   5924.764456  24998.372498  -6658.822001   -113.349095                    
V  5  -2220.100724   8385.529344  30388.746136     -0.014743                    
P  6  -9809.687524  11142.071478  22099.453426    563.801390                    
V  6 -23999.004337 -14045.697668  -3496.007218      0.054508                    
P  7 -23895.008980  -4874.863143 -10660.802332    252.824598                    
V  7 -10947.769821  -9121.481522  27114.156324     -0.065210                    
P  8  -8115.404031 -12901.253904 -21802.677405   -105.310921                    
V  8  23494.991247 -14412.294333    163.556267     -0.018407                    
P  9 -23593.861318   5552.899483  10839.029716   -230.235280                    
V  9  10462.140499  -9461.546645  27378.111386      0.067450                    
P 10  11360.131529 -16542.127960 -17063.687353    -21.895860                    
V 10   1890.978834  22069.576170 -20239.461123     -0.016191                    
P 11   3622.525791  18062.791690  19156.421489    -87.238590                    
V 11 -21158.677758 -11975.054185  15267.008284     -0.093181                    
P 12  10788.862888  16955.011566  17139.864840   -332.355456                    
V 12  -3041.994322  22106.946979 -19535.980071     -0.045811                    
P 13   -685.111207  16080.385102 -21269.740206    465.289152                    
V 13 -24842.446410   9561.164547   8282.169796      0.063029                    
P 14 -13381.069042  13908.950810 -18187.216805    -41.998054                    
V 14  -1168.711329 -23223.483709 -17017.964392      0.080950                    
P 15  10152.873509  12432.269476 -21613.832081      7.689372                    
V 15 -20878.186473  16337.778632   -143.488619      0.032838                    
P 16   -935.860627 -25968.028295  -4405.549464   -522.694472                    
V 16   3376.329337  -5039.194166  31521.438526      0.013183                    
P 17 -22859.486500  13470.992797   2477.426269    695.776899                    
V 17  -3319.269615   -797.793959 -31828.501402      0.025458                    
P 18  22440.766473   2077.531591 -14165.483828   -113.405270                    
V 18  14514.553997  10643.101993  24408.844981     -0.154512                    
P 19 -16772.660462  16441.270093  11905.613814    268.849557                    
V 19 -15095.238786   4365.806785 -27042.944673      0.050737                    
P 20    419.851540  26077.310597   5630.352555    454.837838                    
V 20  -4141.455818  -6468.227718  30215.592923     -0.023822                    
P 21 -19160.127748 -16080.913081  -9444.089142    153.661961                    
V 21  12299.465162   3402.970074 -28141.525858      0.001938                    
P 22  13051.597089 -17864.740013  14997.665162    413.361906                    
V 22  17415.289530  -6146.795370 -23316.880088      0.079853                    
P 23  14636.144365  -4520.927485 -21680.074714      3.622418                    
V 23   1432.378023  27482.975092  -4902.946586      0.012920                    
P 24  21125.058354  15175.361962  -6724.255933    -45.426890                    
V 24  -8579.467512   -549.494218 -29326.731854     -0.164646                    
P 25  14764.892804   7119.300896  20641.251013    414.407677                    
V 25   -280.130153  26897.202258  -8666.781041      0.033057                    
P 26   5113.836207 -24145.168089   9237.296270    240.791010                    
V 26   4425.046248  11750.854842  28273.239957      0.004757                    
P 27   3843.069275 -17768.717312 -19443.227197    118.348715                    
V 27  21615.229252 -11215.809427  15102.623330     -0.092896                    
P 29  23026.396041  -1398.057793  13185.367014   -582.442405                    
V 29 -14268.331180   8963.123723  25703.793118     -0.021571                    
P 30 -17375.684238   6192.350443 -19104.656033   -532.317168                    
V 30 -20387.787451 -13603.260653  13806.461638      0.010490                    
P 31   8738.989742 -12567.493167  21547.809986   -207.348910                    
V 31  23886.261853  14169.770993   -963.293702     -0.011041                    
P 32  20579.655893 -16032.838352   4531.499816   -375.449718                    
V 32   6309.570951   -340.089084 -31160.498831     -0.121126                    
EOF
